STARLINK-1686
1 46328U 20062D   26092.83335647  .00260636  00000+0  14876-2 0  9991
2 46328  53.0421 194.4232 0011333   0.4933  64.3715 15.77551088  5968
